GPS BIIR-2  (PRN 13)    
1 24876U 97035A   26115.35210712  .00000055  00000+0  00000+0 0  9995
2 24876  55.9670 100.6395 0099880  56.1970 304.7489  2.00563818210895
GPS BIIR-5  (PRN 22)    
1 26407U 00040A   26114.45458854 -.00000037  00000+0  00000+0 0  9999
2 26407  54.8617 217.2959 0121903 302.4845  64.7202  2.00569428188878
GPS BIIR-8  (PRN 16)    
1 27663U 03005A   26115.26977762 -.00000045  00000+0  00000+0 0  9991
2 27663  54.8929 217.0709 0148200  52.9584 317.9588  2.00563368170256
GPS BIIR-11 (PRN 19)    
1 28190U 04009A   26115.54239911 -.00000037  00000+0  00000+0 0  9991
2 28190  54.8745 277.8127 0113634 170.7965 191.3848  2.00556347161893
GPS BIIR-13 (PRN 02)    
1 28474U 04045A   26114.75287337 -.00000070  00000+0  00000+0 0  9990
2 28474  55.1665 327.0483 0170086 314.9297 262.4767  2.00553350157357
GPS BIIRM-1 (PRN 17)    
1 28874U 05038A   26115.76711347 -.00000040  00000+0  00000+0 0  9999
2 28874  54.9222 275.2914 0127786 295.8447 254.9889  2.00569269150780
GPS BIIRM-2 (PRN 31)    
1 29486U 06042A   26115.16283579  .00000043  00000+0  00000+0 0  9992
2 29486  54.7024 153.4444 0106145  53.4415 318.7117  2.00572767143335
GPS BIIRM-3 (PRN 12)    
1 29601U 06052A   26114.57003035 -.00000038  00000+0  00000+0 0  9998
2 29601  54.9441 216.1310 0086480  90.2480 270.7556  2.00555028142332
GPS BIIRM-4 (PRN 15)    
1 32260U 07047A   26115.87227631  .00000010  00000+0  00000+0 0  9991
2 32260  54.0579  82.2205 0164753  86.4856 275.3782  2.00557893135762
GPS BIIRM-5 (PRN 29)    
1 32384U 07062A   26115.44177867 -.00000036  00000+0  00000+0 0  9992
2 32384  55.0752 276.2714 0034544 162.3254  13.9135  2.00556762134450
GPS BIIRM-6 (PRN 07)    
1 32711U 08012A   26115.28922097  .00000046  00000+0  00000+0 0  9997
2 32711  54.4881 152.0383 0209670 247.0859 110.7495  2.00570935132696
GPS BIIRM-8 (PRN 05)    
1 35752U 09043A   26115.78310785 -.00000101  00000+0  00000+0 0  9993
2 35752  56.1794  29.5103 0052955  81.3411 288.6250  2.00557111122312
GPS BIIF-1  (PRN 25)    
1 36585U 10022A   26115.10453427 -.00000041  00000+0  00000+0 0  9997
2 36585  54.2773 210.7001 0126658  66.0807 291.1096  2.00559747116525
GPS BIIF-3  (PRN 24)    
1 38833U 12053A   26113.97246792  .00000040  00000+0  00000+0 0  9997
2 38833  53.5743 145.8203 0177937  65.1328 296.7656  2.00566553 98354
GPS BIIF-4  (PRN 27)    
1 39166U 13023A   26113.33948645 -.00000014  00000+0  00000+0 0  9993
2 39166  54.5486 271.2064 0141929  50.6414 310.5808  2.00563719 94783
GPS BIIF-5  (PRN 30)    
1 39533U 14008A   26115.33446882  .00000045  00000+0  00000+0 0  9996
2 39533  53.6444 151.4757 0083773 230.1062 129.2170  2.00556368 88624
GPS BIIF-6  (PRN 06)    
1 39741U 14026A   26115.61032538 -.00000077  00000+0  00000+0 0  9993
2 39741  56.5223 333.5646 0038956 326.6637  33.1281  2.00564849 87486
