[{"OBJECT_NAME":"GPS BIIR-2  (PRN 13)","OBJECT_ID":"1997-035A","EPOCH":"2026-04-25T08:27:02.055168","MEAN_MOTION":2.00563818,"ECCENTRICITY":0.009988,"INCLINATION":55.967,"RA_OF_ASC_NODE":100.6395,"ARG_OF_PERICENTER":56.197,"MEAN_ANOMALY":304.7489,"EPHEMERIS_TYPE":0,"CLASSIFICATION_TYPE":"U","NORAD_CAT_ID":24876,"ELEMENT_SET_NO":999,"REV_AT_EPOCH":21089,"BSTAR":0,"MEAN_MOTION_DOT":5.5e-7,"MEAN_MOTION_DDOT":0},{"OBJECT_NAME":"GPS BIIR-5  (PRN 22)","OBJECT_ID":"2000-040A","EPOCH":"2026-04-24T10:54:36.449856","MEAN_MOTION":2.00569428,"ECCENTRICITY":0.01219032,"INCLINATION":54.8617,"RA_OF_ASC_NODE":217.2959,"ARG_OF_PERICENTER":302.4845,"MEAN_ANOMALY":64.7202,"EPHEMERIS_TYPE":0,"CLASSIFICATION_TYPE":"U","NORAD_CAT_ID":26407,"ELEMENT_SET_NO":999,"REV_AT_EPOCH":18887,"BSTAR":0,"MEAN_MOTION_DOT":-3.7e-7,"MEAN_MOTION_DDOT":0},{"OBJECT_NAME":"GPS BIIR-8  (PRN 16)","OBJECT_ID":"2003-005A","EPOCH":"2026-04-25T06:28:28.786368","MEAN_MOTION":2.00563368,"ECCENTRICITY":0.01482,"INCLINATION":54.8929,"RA_OF_ASC_NODE":217.0709,"ARG_OF_PERICENTER":52.9584,"MEAN_ANOMALY":317.9588,"EPHEMERIS_TYPE":0,"CLASSIFICATION_TYPE":"U","NORAD_CAT_ID":27663,"ELEMENT_SET_NO":999,"REV_AT_EPOCH":17025,"BSTAR":0,"MEAN_MOTION_DOT":-4.5e-7,"MEAN_MOTION_DDOT":0},{"OBJECT_NAME":"GPS BIIR-11 (PRN 19)","OBJECT_ID":"2004-009A","EPOCH":"2026-04-25T13:01:03.283104","MEAN_MOTION":2.00556347,"ECCENTRICITY":0.0113634,"INCLINATION":54.8745,"RA_OF_ASC_NODE":277.8127,"ARG_OF_PERICENTER":170.7965,"MEAN_ANOMALY":191.3848,"EPHEMERIS_TYPE":0,"CLASSIFICATION_TYPE":"U","NORAD_CAT_ID":28190,"ELEMENT_SET_NO":999,"REV_AT_EPOCH":16189,"BSTAR":0,"MEAN_MOTION_DOT":-3.7e-7,"MEAN_MOTION_DDOT":0},{"OBJECT_NAME":"GPS BIIR-13 (PRN 02)","OBJECT_ID":"2004-045A","EPOCH":"2026-04-24T18:04:08.259168","MEAN_MOTION":2.0055335,"ECCENTRICITY":0.01700868,"INCLINATION":55.1665,"RA_OF_ASC_NODE":327.0483,"ARG_OF_PERICENTER":314.9297,"MEAN_ANOMALY":262.4767,"EPHEMERIS_TYPE":0,"CLASSIFICATION_TYPE":"U","NORAD_CAT_ID":28474,"ELEMENT_SET_NO":999,"REV_AT_EPOCH":15735,"BSTAR":0,"MEAN_MOTION_DOT":-7.0e-7,"MEAN_MOTION_DDOT":0},{"OBJECT_NAME":"GPS BIIRM-1 (PRN 17)","OBJECT_ID":"2005-038A","EPOCH":"2026-04-25T18:24:38.603808","MEAN_MOTION":2.00569269,"ECCENTRICITY":0.0127786,"INCLINATION":54.9222,"RA_OF_ASC_NODE":275.2914,"ARG_OF_PERICENTER":295.8447,"MEAN_ANOMALY":254.9889,"EPHEMERIS_TYPE":0,"CLASSIFICATION_TYPE":"U","NORAD_CAT_ID":28874,"ELEMENT_SET_NO":999,"REV_AT_EPOCH":15078,"BSTAR":0,"MEAN_MOTION_DOT":-4.0e-7,"MEAN_MOTION_DDOT":0},{"OBJECT_NAME":"GPS BIIRM-2 (PRN 31)","OBJECT_ID":"2006-042A","EPOCH":"2026-04-25T03:54:29.012256","MEAN_MOTION":2.00572767,"ECCENTRICITY":0.01061457,"INCLINATION":54.7024,"RA_OF_ASC_NODE":153.4444,"ARG_OF_PERICENTER":53.4415,"MEAN_ANOMALY":318.7117,"EPHEMERIS_TYPE":0,"CLASSIFICATION_TYPE":"U","NORAD_CAT_ID":29486,"ELEMENT_SET_NO":999,"REV_AT_EPOCH":14333,"BSTAR":0,"MEAN_MOTION_DOT":4.3e-7,"MEAN_MOTION_DDOT":0},{"OBJECT_NAME":"GPS BIIRM-3 (PRN 12)","OBJECT_ID":"2006-052A","EPOCH":"2026-04-24T13:40:50.622240","MEAN_MOTION":2.00555028,"ECCENTRICITY":0.00864806,"INCLINATION":54.9441,"RA_OF_ASC_NODE":216.131,"ARG_OF_PERICENTER":90.248,"MEAN_ANOMALY":270.7556,"EPHEMERIS_TYPE":0,"CLASSIFICATION_TYPE":"U","NORAD_CAT_ID":29601,"ELEMENT_SET_NO":999,"REV_AT_EPOCH":14233,"BSTAR":0,"MEAN_MOTION_DOT":-3.8e-7,"MEAN_MOTION_DDOT":0},{"OBJECT_NAME":"GPS BIIRM-4 (PRN 15)","OBJECT_ID":"2007-047A","EPOCH":"2026-04-25T20:56:04.673184","MEAN_MOTION":2.00557893,"ECCENTRICITY":0.0164753,"INCLINATION":54.0579,"RA_OF_ASC_NODE":82.2205,"ARG_OF_PERICENTER":86.4856,"MEAN_ANOMALY":275.3782,"EPHEMERIS_TYPE":0,"CLASSIFICATION_TYPE":"U","NORAD_CAT_ID":32260,"ELEMENT_SET_NO":999,"REV_AT_EPOCH":13576,"BSTAR":0,"MEAN_MOTION_DOT":1.0e-7,"MEAN_MOTION_DDOT":0},{"OBJECT_NAME":"GPS BIIRM-5 (PRN 29)","OBJECT_ID":"2007-062A","EPOCH":"2026-04-25T10:36:09.677088","MEAN_MOTION":2.00556762,"ECCENTRICITY":0.0034544,"INCLINATION":55.0752,"RA_OF_ASC_NODE":276.2714,"ARG_OF_PERICENTER":162.3254,"MEAN_ANOMALY":13.9135,"EPHEMERIS_TYPE":0,"CLASSIFICATION_TYPE":"U","NORAD_CAT_ID":32384,"ELEMENT_SET_NO":999,"REV_AT_EPOCH":13445,"BSTAR":0,"MEAN_MOTION_DOT":-3.6e-7,"MEAN_MOTION_DDOT":0},{"OBJECT_NAME":"GPS BIIRM-6 (PRN 07)","OBJECT_ID":"2008-012A","EPOCH":"2026-04-25T06:56:28.691808","MEAN_MOTION":2.00570935,"ECCENTRICITY":0.020967,"INCLINATION":54.4881,"RA_OF_ASC_NODE":152.0383,"ARG_OF_PERICENTER":247.0859,"MEAN_ANOMALY":110.7495,"EPHEMERIS_TYPE":0,"CLASSIFICATION_TYPE":"U","NORAD_CAT_ID":32711,"ELEMENT_SET_NO":999,"REV_AT_EPOCH":13269,"BSTAR":0,"MEAN_MOTION_DOT":4.6e-7,"MEAN_MOTION_DDOT":0},{"OBJECT_NAME":"GPS BIIRM-8 (PRN 05)","OBJECT_ID":"2009-043A","EPOCH":"2026-04-25T18:47:40.518240","MEAN_MOTION":2.00557111,"ECCENTRICITY":0.0052955,"INCLINATION":56.1794,"RA_OF_ASC_NODE":29.5103,"ARG_OF_PERICENTER":81.3411,"MEAN_ANOMALY":288.625,"EPHEMERIS_TYPE":0,"CLASSIFICATION_TYPE":"U","NORAD_CAT_ID":35752,"ELEMENT_SET_NO":999,"REV_AT_EPOCH":12231,"BSTAR":0,"MEAN_MOTION_DOT":-1.01e-6,"MEAN_MOTION_DDOT":0},{"OBJECT_NAME":"GPS BIIF-1  (PRN 25)","OBJECT_ID":"2010-022A","EPOCH":"2026-04-25T02:30:31.760928","MEAN_MOTION":2.00559747,"ECCENTRICITY":0.0126658,"INCLINATION":54.2773,"RA_OF_ASC_NODE":210.7001,"ARG_OF_PERICENTER":66.0807,"MEAN_ANOMALY":291.1096,"EPHEMERIS_TYPE":0,"CLASSIFICATION_TYPE":"U","NORAD_CAT_ID":36585,"ELEMENT_SET_NO":999,"REV_AT_EPOCH":11652,"BSTAR":0,"MEAN_MOTION_DOT":-4.1e-7,"MEAN_MOTION_DDOT":0},{"OBJECT_NAME":"GPS BIIF-3  (PRN 24)","OBJECT_ID":"2012-053A","EPOCH":"2026-04-23T23:20:21.228288","MEAN_MOTION":2.00566553,"ECCENTRICITY":0.0177937,"INCLINATION":53.5743,"RA_OF_ASC_NODE":145.8203,"ARG_OF_PERICENTER":65.1328,"MEAN_ANOMALY":296.7656,"EPHEMERIS_TYPE":0,"CLASSIFICATION_TYPE":"U","NORAD_CAT_ID":38833,"ELEMENT_SET_NO":999,"REV_AT_EPOCH":9835,"BSTAR":0,"MEAN_MOTION_DOT":4.0e-7,"MEAN_MOTION_DDOT":0},{"OBJECT_NAME":"GPS BIIF-4  (PRN 27)","OBJECT_ID":"2013-023A","EPOCH":"2026-04-23T08:08:51.629280","MEAN_MOTION":2.00563719,"ECCENTRICITY":0.01419293,"INCLINATION":54.5486,"RA_OF_ASC_NODE":271.2064,"ARG_OF_PERICENTER":50.6414,"MEAN_ANOMALY":310.5808,"EPHEMERIS_TYPE":0,"CLASSIFICATION_TYPE":"U","NORAD_CAT_ID":39166,"ELEMENT_SET_NO":999,"REV_AT_EPOCH":9478,"BSTAR":0,"MEAN_MOTION_DOT":-1.4e-7,"MEAN_MOTION_DDOT":0},{"OBJECT_NAME":"GPS BIIF-5  (PRN 30)","OBJECT_ID":"2014-008A","EPOCH":"2026-04-25T08:01:38.106048","MEAN_MOTION":2.00556368,"ECCENTRICITY":0.0083773,"INCLINATION":53.6444,"RA_OF_ASC_NODE":151.4757,"ARG_OF_PERICENTER":230.1062,"MEAN_ANOMALY":129.217,"EPHEMERIS_TYPE":0,"CLASSIFICATION_TYPE":"U","NORAD_CAT_ID":39533,"ELEMENT_SET_NO":999,"REV_AT_EPOCH":8862,"BSTAR":0,"MEAN_MOTION_DOT":4.5e-7,"MEAN_MOTION_DDOT":0},{"OBJECT_NAME":"GPS BIIF-6  (PRN 06)","OBJECT_ID":"2014-026A","EPOCH":"2026-04-25T14:38:52.112832","MEAN_MOTION":2.00564849,"ECCENTRICITY":0.0038956,"INCLINATION":56.5223,"RA_OF_ASC_NODE":333.5646,"ARG_OF_PERICENTER":326.6637,"MEAN_ANOMALY":33.1281,"EPHEMERIS_TYPE":0,"CLASSIFICATION_TYPE":"U","NORAD_CAT_ID":39741,"ELEMENT_SET_NO":999,"REV_AT_EPOCH":8748,"BSTAR":0,"MEAN_MOTION_DOT":-7.7e-7,"MEAN_MOTION_DDOT":0}]
